49810,GSAT0224 (GALILEO 28),2021,844.7,733.0,+,57.29,Active,1,MEO,French Guiana,ESA,Commercial,Navigation (Global or Regional Positioning),Soyuz,1 49810U 21116B   24020.38437983 -.00000089  00000+0  00000+0 0  9992,2 49810  57.2944   5.3722 0002626 263.2842 268.6578  1.70475670 13224,1.7047567,0.0002626,MEO
52984,COSMOS 2557 [GLONASS-K],2022,675.73,974.0,+,64.72,Active,1,MEO,Russia,Russia/USSR,Commercial/Military,Navigation (Global or Regional Positioning),Soyuz,1 52984U 22075A   24020.18304534 -.00000080  00000+0  00000+0 0  9997,2 52984  64.7234 345.2795 0013838 283.8346  76.0065  2.13101765 11987,2.13101765,0.0013838,MEO
54031,COSMOS 2559 [GLONASS-K],2022,675.74,1415.0,+,64.7,Active,1,MEO,Russia,Russia/USSR,Commercial/Military,Navigation (Global or Regional Positioning),Soyuz,1 54031U 22130A   24020.12547841 -.00000080  00000+0  00000+0 0  9998,2 54031  64.6948 345.4044 0006900 239.1991 120.7284  2.13101070  9957,2.1310107,0.00069,MEO
54377,COSMOS 2564 [GLONASS-M],2022,675.73,-1.0,+,64.75,Active,0,MEO,Russia,Russia/USSR,Unknown,Unknown,Unknown,1 54377U 22161A   24019.84855671  .00000111  00000+0  00000+0 0  9999,2 54377  64.7469 221.9620 0007197 206.2548 153.7598  2.13102113  8894,2.13102113,0.0007197,MEO
55268,NAVSTAR 82 (USA 343),2023,717.94,4352.0,+,55.09,Active,1,MEO,USA,USA,Commercial/Military,Navigation (Global or Regional Positioning),Falcon,1 55268U 23009A   24020.47440650  .00000076  00000+0  00000+0 0  9999,2 55268  55.0880 182.9965 0004898 101.8911 268.5335  2.00574727  7625,2.00574727,0.0004898,MEO
56564,BEIDOU-3 G4,2023,1436.1,-1.0,+,2.5,Active,0,GSO,PRC,China,Unknown,Unknown,Unknown,1 56564U 23066A   24020.63601122 -.00000103  00000+0  00000+0 0  9995,2 56564   2.4939 288.2809 0002815 232.2140 348.0587  1.00271435  2585,1.00271435,0.0002815,GSO
56759,IRNSS-1J (NVS-01),2023,1436.12,-1.0,+,4.38,Active,0,GSO,India,India,Unknown,Unknown,GSLV,1 56759U 23076A   24020.53521556 -.00000326  00000+0  00000+0 0  9990,2 56759   4.3801 269.3182 0007559   0.5727 171.7522  1.00269877  2308,1.00269877,0.0007559,GSO
57517,COSMOS 2569 [GLONASS-K2],2023,675.73,-1.0,+,64.85,Active,0,MEO,Russia,Russia/USSR,Unknown,Unknown,Unknown,1 57517U 23114A   24020.33623401 -.00000050  00000+0  00000+0 0  9990,2 57517  64.8539 102.3639 0011097 291.4024  68.5120  2.13104246  3532,2.13104246,0.0011097,MEO
58654,BEIDOU-3 M25,2023,787.07,-1.0,+,54.98,Active,0,MEO,PRC,China,Unknown,Unknown,Unknown,1 58654U 23207A   24019.50000000 -.00000068  00000+0  00000+0 0  9996,2 58654  55.0020  92.1740 0003594 252.7320 285.8580  1.86231622   453,1.86231622,0.0003594,MEO
58655,BEIDOU-3 M26,2023,775.83,-1.0,+,54.65,Active,0,MEO,PRC,China,Unknown,Unknown,Unknown,1 58655U 23207B   24005.84694770 -.00000037  00000+0  00000+0 0  9998,2 58655  54.6471  92.7627 0316732  68.9835  87.0455  1.85607573   193,1.85607573,0.0316732,MEO
